NORAD_CAT_ID,OBJECT_NAME,OBJECT_TYPE,EPOCH,MEAN_MOTION,ECCENTRICITY,INCLINATION,RA_OF_ASC_NODE,ARG_OF_PERICENTER,MEAN_ANOMALY,BSTAR,MEAN_MOTION_DOT,MEAN_MOTION_DDOT,TLE_LINE0,TLE_LINE1,TLE_LINE2,SEMIMAJOR_AXIS,PERIOD,APOGEE,PERIGEE,DECAYED
55305.0,STARLINK-5316,PAYLOAD,2023-11-21 10:39:34,14.98317848,0.0002283,69.9997,340.6823,258.9384,101.1518,0.0002924,3.396e-05,0.0,0 STARLINK-5316,1 55305U 23010AN  23325.44415021  .00003396  00000-0  29240-3 0  9991,2 55305  69.9997 340.6823 0002283 258.9384 101.1518 14.98317848 47561,6950.23,96.108,573.682,570.509,0.0
55305.0,STARLINK-5316,PAYLOAD,2023-11-22 04:17:02,14.98339466,0.0002639,69.9994,338.8311,268.5264,91.5592,0.00016791,1.912e-05,0.0,0 STARLINK-5316,1 55305U 23010AN  23326.17849744  .00001912  00000-0  16791-3 0  9994,2 55305  69.9994 338.8311 0002639 268.5264  91.5592 14.98339466 47359,6950.164,96.106,573.863,570.194,0.0
55305.0,STARLINK-5316,PAYLOAD,2023-11-22 10:41:34,14.98341595,0.000237,69.9998,338.1584,258.0914,101.998,0.0002119,2.437e-05,0.0,0 STARLINK-5316,1 55305U 23010AN  23326.44553270  .00002437  00000-0  21190-3 0  9992,2 55305  69.9998 338.1584 0002370 258.0914 101.9980 14.98341595 47719,6950.157,96.106,573.669,570.375,0.0
55305.0,STARLINK-5316,PAYLOAD,2023-11-23 02:42:55,14.98336762,0.0002323,70.0008,336.4767,257.0028,103.0872,-3.5127e-05,-5.12e-06,0.0,0 STARLINK-5316,1 55305U 23010AN  23327.11313869 -.00000512  00000-0 -35127-4 0  9995,2 55305  70.0008 336.4767 0002323 257.0028 103.0872 14.98336762 47499,6950.172,96.107,573.652,570.422,0.0
55305.0,STARLINK-5316,PAYLOAD,2023-11-23 10:43:35,14.98330493,0.0002591,69.9998,335.6328,266.5383,93.5479,-0.00011804,-1.501e-05,0.0,0 STARLINK-5316,1 55305U 23010AN  23327.44694345 -.00001501  00000-0 -11804-3 0  9996,2 55305  69.9998 335.6328 0002591 266.5383  93.5479 14.98330493 47541,6950.191,96.107,573.857,570.256,0.0
55305.0,STARLINK-5316,PAYLOAD,2023-11-24 02:44:55,14.98338703,0.0002409,69.9999,333.9507,260.6471,99.4416,-0.0001355,-1.71e-05,0.0,0 STARLINK-5316,1 55305U 23010AN  23328.11453652 -.00001710  00000-0 -13550-3 0  9997,2 55305  69.9999 333.9507 0002409 260.6471  99.4416 14.98338703 47642,6950.166,96.106,573.705,570.357,0.0
55305.0,STARLINK-5316,PAYLOAD,2023-11-24 10:45:36,14.98332539,0.0002537,69.9997,333.1085,265.177,94.9099,-0.00018996,-2.359e-05,0.0,0 STARLINK-5316,1 55305U 23010AN  23328.44834102 -.00002359  00000-0 -18996-3 0  9995,2 55305  69.9997 333.1085 0002537 265.1770  94.9099 14.98332539 47690,6950.185,96.107,573.813,570.287,0.0
55305.0,STARLINK-5316,PAYLOAD,2023-11-25 02:46:56,14.98331549,0.0002952,69.9988,331.4243,270.0939,89.9882,5.8529e-05,6.05e-06,0.0,0 STARLINK-5316,1 55305U 23010AN  23329.11593291  .00000605  00000-0  58529-4 0  9998,2 55305  69.9988 331.4243 0002952 270.0939  89.9882 14.98331549 47795,6950.188,96.107,574.105,570.001,0.0
55305.0,STARLINK-5316,PAYLOAD,2023-11-25 10:47:36,14.98335981,0.0002876,69.9989,330.5826,269.3068,90.7762,0.0001063,1.176e-05,0.0,0 STARLINK-5316,1 55305U 23010AN  23329.44972808  .00001176  00000-0  10630-3 0  9993,2 55305  69.9989 330.5826 0002876 269.3068  90.7762 14.98335981 48165,6950.174,96.107,574.038,570.041,0.0
55305.0,STARLINK-5316,PAYLOAD,2023-11-26 02:48:57,14.98330255,0.0002763,69.9992,328.8995,268.8979,91.1864,6.0182e-05,6.25e-06,0.0,0 STARLINK-5316,1 55305U 23010AN  23330.11733168  .00000625  00000-0  60182-4 0  9999,2 55305  69.9992 328.8995 0002763 268.8979  91.1864 14.98330255 47948,6950.192,96.107,573.977,570.137,0.0
55305.0,STARLINK-5316,PAYLOAD,2023-11-26 10:49:37,14.98334175,0.0002516,69.9994,328.0577,263.1646,96.9227,9.0957e-05,9.93e-06,0.0,0 STARLINK-5316,1 55305U 23010AN  23330.45112778  .00000993  00000-0  90957-4 0  9995,2 55305  69.9994 328.0577 0002516 263.1646  96.9227 14.98334175 48316,6950.18,96.107,573.794,570.296,0.0
55305.0,STARLINK-5316,PAYLOAD,2023-11-27 04:27:07,14.98319882,0.0002675,69.999,326.2061,262.507,97.5785,-0.00016746,-2.09e-05,0.0,0 STARLINK-5316,1 55305U 23010AN  23331.18550509 -.00002090  00000-0 -16746-3 0  9999,2 55305  69.9990 326.2061 0002675 262.5070  97.5785 14.98319882 48101,6950.224,96.108,573.948,570.23,0.0
55305.0,STARLINK-5316,PAYLOAD,2023-11-27 09:15:32,14.98318177,0.0002554,69.9994,325.7001,271.611,88.4756,-0.00021916,-2.706e-05,0.0,0 STARLINK-5316,1 55305U 23010AN  23331.38579000 -.00002706  00000-0 -21916-3 0  9997,2 55305  69.9994 325.7001 0002554 271.6110  88.4756 14.98318177 48456,6950.229,96.108,573.87,570.319,0.0
55305.0,STARLINK-5316,PAYLOAD,2023-11-28 02:53:00,14.98323916,0.0002696,69.9992,323.8496,268.9223,91.1627,-6.5959e-05,-8.8e-06,0.0,0 STARLINK-5316,1 55305U 23010AN  23332.12014435 -.00000880  00000-0 -65959-4 0  9993,2 55305  69.9992 323.8496 0002696 268.9223  91.1627 14.98323916 48244,6950.212,96.107,573.95,570.203,0.0
55305.0,STARLINK-5316,PAYLOAD,2023-11-28 09:17:32,14.98335671,0.0002242,70.0,323.176,260.781,99.3096,-8.9349e-05,-1.159e-05,0.0,0 STARLINK-5316,1 55305U 23010AN  23332.38717776 -.00001159  00000-0 -89349-4 0  9998,2 55305  70.0000 323.1760 0002242 260.7810  99.3096 14.98335671 48288,6950.175,96.107,573.599,570.482,0.0
55305.0,STARLINK-5316,PAYLOAD,2023-11-29 09:19:32,14.98328382,0.0002178,70.0001,320.6514,262.3583,97.7329,0.00026258,3.041e-05,0.0,0 STARLINK-5316,1 55305U 23010AN  23333.38857355  .00003041  00000-0  26258-3 0  9996,2 55305  70.0001 320.6514 0002178 262.3583  97.7329 14.98328382 48430,6950.198,96.107,573.577,570.549,0.0
55305.0,STARLINK-5316,PAYLOAD,2023-11-30 09:21:34,14.98328708,0.0002092,70.0001,318.1256,244.9244,115.1698,1.1642e-05,4.6e-07,0.0,0 STARLINK-5316,1 55305U 23010AN  23334.38997808  .00000046  00000-0  11642-4 0  9999,2 55305  70.0001 318.1256 0002092 244.9244 115.1698 14.98328708 48582,6950.197,96.107,573.516,570.608,0.0
55305.0,STARLINK-5316,PAYLOAD,2023-12-01 09:23:35,14.98329386,0.0001867,70.0007,315.6014,241.9727,118.1243,-3.0614e-05,-4.58e-06,0.0,0 STARLINK-5316,1 55305U 23010AN  23335.39137738 -.00000458  00000-0 -30614-4 0  9998,2 55305  70.0007 315.6014 0001867 241.9727 118.1243 14.98329386 48733,6950.195,96.107,573.357,570.762,0.0
55305.0,STARLINK-5316,PAYLOAD,2023-12-02 01:24:54,14.98326309,0.0002572,69.9991,313.9168,261.062,99.0248,0.00032945,3.84e-05,0.0,0 STARLINK-5316,1 55305U 23010AN  23336.05896445  .00003840  00000-0  32945-3 0  9993,2 55305  69.9991 313.9168 0002572 261.0620  99.0248 14.98326309 48837,6950.204,96.107,573.857,570.282,0.0
55305.0,STARLINK-5316,PAYLOAD,2023-12-02 07:49:26,14.9834426,0.0002321,69.9998,313.2448,253.829,106.2614,0.00013482,1.517e-05,0.0,0 STARLINK-5316,1 55305U 23010AN  23336.32599824  .00001517  00000-0  13482-3 0  9998,2 55305  69.9998 313.2448 0002321 253.8290 106.2614 14.98344260 48870,6950.149,96.106,573.627,570.401,0.0
55305.0,STARLINK-5316,PAYLOAD,2023-12-03 03:03:05,14.98311083,0.0002553,69.9997,311.2259,253.6266,106.4612,-0.00020527,-2.54e-05,0.0,0 STARLINK-5316,1 55305U 23010AN  23337.12714915 -.00002540  00000-0 -20527-3 0  9994,2 55305  69.9997 311.2259 0002553 253.6266 106.4612 14.98311083 48995,6950.251,96.108,573.891,570.342,0.0
55305.0,STARLINK-5316,PAYLOAD,2023-12-03 07:51:30,14.98309375,0.0002403,70.0001,310.721,247.0582,113.0324,-0.00020544,-2.542e-05,0.0,0 STARLINK-5316,1 55305U 23010AN  23337.32743226 -.00002542  00000-0 -20544-3 0  9994,2 55305  70.0001 310.7210 0002403 247.0582 113.0324 14.98309375 49342,6950.257,96.108,573.792,570.452,0.0
55305.0,STARLINK-5316,PAYLOAD,2023-12-04 03:05:06,14.98325535,0.0002481,69.9998,308.6999,241.9488,118.142,-0.00017109,-2.133e-05,0.0,0 STARLINK-5316,1 55305U 23010AN  23338.12854516 -.00002133  00000-0 -17109-3 0  9997,2 55305  69.9998 308.6999 0002481 241.9488 118.1420 14.98325535 49145,6950.207,96.107,573.796,570.347,0.0
55305.0,STARLINK-5316,PAYLOAD,2023-12-04 07:53:30,14.98325463,0.0002317,70.0006,308.1961,239.7564,120.3366,-0.00015867,-1.985e-05,0.0,0 STARLINK-5316,1 55305U 23010AN  23338.32882500 -.00001985  00000-0 -15867-3 0  9996,2 55305  70.0006 308.1961 0002317 239.7564 120.3366 14.98325463 49492,6950.207,96.107,573.682,570.462,0.0
55305.0,STARLINK-5316,PAYLOAD,2023-12-05 03:07:06,14.98324057,0.0002644,69.9991,306.1741,262.1139,97.972,0.00024357,2.814e-05,0.0,0 STARLINK-5316,1 55305U 23010AN  23339.12993719  .00002814  00000-0  24357-3 0  9994,2 55305  69.9991 306.1741 0002644 262.1139  97.9720 14.98324057 49296,6950.211,96.107,573.914,570.239,0.0
55305.0,STARLINK-5316,PAYLOAD,2023-12-05 07:55:30,14.98324479,0.0002178,70.0007,305.671,245.7704,114.3227,0.00028392,3.296e-05,0.0,0 STARLINK-5316,1 55305U 23010AN  23339.33021639  .00003296  00000-0  28392-3 0  9998,2 55305  70.0007 305.6710 0002178 245.7704 114.3227 14.98324479 49647,6950.21,96.107,573.589,570.561,0.0
55305.0,STARLINK-5316,PAYLOAD,2023-12-05 20:44:34,14.98335533,0.0002584,69.9995,304.3235,251.7175,108.3703,0.00012917,1.449e-05,0.0,0 STARLINK-5316,1 55305U 23010AN  23339.86429209  .00001449  00000-0  12917-3 0  9995,2 55305  69.9995 304.3235 0002584 251.7175 108.3703 14.98335533 49722,6950.176,96.107,573.837,570.245,0.0
55305.0,STARLINK-5316,PAYLOAD,2023-12-06 04:45:15,14.98330215,0.0002275,70.0001,303.4818,247.374,112.7179,6.2776e-05,6.56e-06,0.0,0 STARLINK-5316,1 55305U 23010AN  23340.19809686  .00000656  00000-0  62776-4 0  9992,2 55305  70.0001 303.4818 0002275 247.3740 112.7179 14.98330215 49454,6950.192,96.107,573.638,570.476,0.0
55305.0,STARLINK-5316,PAYLOAD,2023-12-06 07:57:31,14.98331782,0.0002248,70.0002,303.1451,248.5326,111.5594,7.6571e-05,8.21e-06,0.0,0 STARLINK-5316,1 55305U 23010AN  23340.33161527  .00000821  00000-0  76571-4 0  9995,2 55305  70.0002 303.1451 0002248 248.5326 111.5594 14.98331782 49793,6950.187,96.107,573.615,570.49,0.0
55305.0,STARLINK-5316,PAYLOAD,2023-12-06 22:22:44,14.98323886,0.0001963,70.001,301.6287,261.7844,98.3092,0.00015112,1.71e-05,0.0,0 STARLINK-5316,1 55305U 23010AN  23340.93245462  .00001710  00000-0  15112-3 0  9993,2 55305  70.0010 301.6287 0001963 261.7844  98.3092 14.98323886 49888,6950.212,96.107,573.441,570.712,0.0
